NORAD_CAT_ID,OBJECT_NAME,OBJECT_TYPE,EPOCH,MEAN_MOTION,ECCENTRICITY,INCLINATION,RA_OF_ASC_NODE,ARG_OF_PERICENTER,MEAN_ANOMALY,BSTAR,MEAN_MOTION_DOT,MEAN_MOTION_DDOT,TLE_LINE0,TLE_LINE1,TLE_LINE2,SEMIMAJOR_AXIS,PERIOD,APOGEE,PERIGEE,DECAYED
51134.0,STARLINK-3183,PAYLOAD,2023-11-01 23:07:45,15.0884376,0.0001291,53.2163,184.0906,102.1821,257.9316,0.00019479,2.814e-05,0.0,0 STARLINK-3183,1 51134U 22005AG  23305.96371751  .00002814  00000-0  19479-3 0  9993,2 51134  53.2163 184.0906 0001291 102.1821 257.9316 15.08843760 99241,6917.869,95.437,540.627,538.841,0.0
51134.0,STARLINK-3183,PAYLOAD,2023-11-02 08:40:03,15.08845074,0.0001245,53.216,182.3068,100.3503,259.7629,0.00019449,2.809e-05,0.0,0 STARLINK-3183,1 51134U 22005AG  23306.36115695  .00002809  00000-0  19449-3 0  9992,2 51134  53.2160 182.3068 0001245 100.3503 259.7629 15.08845074 99308,6917.865,95.437,540.591,538.869,0.0
51134.0,STARLINK-3183,PAYLOAD,2023-11-02 22:58:32,15.08841318,0.0001299,53.216,179.6302,101.0946,259.0192,7.442e-05,8.97e-06,0.0,0 STARLINK-3183,1 51134U 22005AG  23306.95731758  .00000897  00000-0  74420-4 0  9997,2 51134  53.2160 179.6302 0001299 101.0946 259.0192 15.08841318 99390,6917.876,95.437,540.64,538.843,0.0
51134.0,STARLINK-3183,PAYLOAD,2023-11-03 00:33:55,15.08845141,0.0001227,53.2159,179.3307,82.6943,277.4189,0.0001078,1.428e-05,0.0,0 STARLINK-3183,1 51134U 22005AG  23307.02355582  .00001428  00000-0  10780-3 0  9992,2 51134  53.2159 179.3307 0001227  82.6943 277.4189 15.08845141100517,6917.865,95.437,540.578,538.881,0.0
51134.0,STARLINK-3183,PAYLOAD,2023-11-03 21:13:56,15.0884248,0.0001379,53.2159,175.4665,81.9115,278.2034,8.4835e-05,1.063e-05,0.0,0 STARLINK-3183,1 51134U 22005AG  23307.88467778  .00001063  00000-0  84835-4 0  9995,2 51134  53.2159 175.4665 0001379  81.9115 278.2034 15.08842480 99532,6917.873,95.437,540.692,538.784,0.0
51134.0,STARLINK-3183,PAYLOAD,2023-11-04 08:21:38,15.0884358,0.0001141,53.2156,173.382,85.0547,275.0575,8.2059e-05,1.019e-05,0.0,0 STARLINK-3183,1 51134U 22005AG  23308.34835656  .00001019  00000-0  82059-4 0  9998,2 51134  53.2156 173.3820 0001141  85.0547 275.0575 15.08843580100710,6917.869,95.437,540.524,538.945,0.0
51134.0,STARLINK-3183,PAYLOAD,2023-11-04 22:40:06,15.0884715,0.0001231,53.2159,170.7072,84.028,276.0852,0.00013806,1.91e-05,0.0,0 STARLINK-3183,1 51134U 22005AG  23308.94451643  .00001910  00000-0  13806-3 0  9997,2 51134  53.2159 170.7072 0001231  84.0280 276.0852 15.08847150 99696,6917.859,95.437,540.575,538.872,0.0
51134.0,STARLINK-3183,PAYLOAD,2023-11-05 08:12:25,15.08843591,0.0001218,53.2157,168.9223,81.4106,278.7024,0.00015439,2.17e-05,0.0,0 STARLINK-3183,1 51134U 22005AG  23309.34195755  .00002170  00000-0  15439-3 0  9994,2 51134  53.2157 168.9223 0001218  81.4106 278.7024 15.08843591 99756,6917.869,95.437,540.577,538.892,0.0
51134.0,STARLINK-3183,PAYLOAD,2023-11-05 19:20:06,15.08851826,0.0001075,53.2166,166.8395,103.1186,256.9926,0.00026854,3.99e-05,0.0,0 STARLINK-3183,1 51134U 22005AG  23309.80563238  .00003990  00000-0  26854-3 0  9994,2 51134  53.2166 166.8395 0001075 103.1186 256.9926 15.08851826100936,6917.844,95.437,540.453,538.966,0.0
51134.0,STARLINK-3183,PAYLOAD,2023-11-05 20:55:29,15.08870613,0.0001244,53.2152,166.5439,83.472,276.6414,0.00065923,0.00010228,0.0,0 STARLINK-3183,1 51134U 22005AG  23309.87186695  .00010228  00000-0  65923-3 0  9991,2 51134  53.2152 166.5439 0001244  83.4720 276.6414 15.08870613 99831,6917.787,95.436,540.512,538.791,0.0
51134.0,STARLINK-3183,PAYLOAD,2023-11-06 00:06:15,15.08875641,0.0001286,53.2156,165.9479,85.659,274.4549,0.00072093,0.00011215,0.0,0 STARLINK-3183,1 51134U 22005AG  23310.00434299  .00011215  00000-0  72093-3 0  9997,2 51134  53.2156 165.9479 0001286  85.6590 274.4549 15.08875641100965,6917.771,95.435,540.526,538.747,0.0
51134.0,STARLINK-3183,PAYLOAD,2023-11-06 08:03:11,15.0885729,0.0001262,53.2155,164.4637,81.7655,278.348,0.00029777,4.456e-05,0.0,0 STARLINK-3183,1 51134U 22005AG  23310.33554629  .00004456  00000-0  29777-3 0  9993,2 51134  53.2155 164.4637 0001262  81.7655 278.3480 15.08857290101011,6917.828,95.436,540.566,538.82,0.0
51134.0,STARLINK-3183,PAYLOAD,2023-11-06 20:46:17,15.08802139,0.0001379,53.2156,162.0833,81.8988,278.216,-0.00094223,-0.00015237,0.0,0 STARLINK-3183,1 51134U 22005AG  23310.86548478 -.00015237  00000-0 -94223-3 0  9995,2 51134  53.2156 162.0833 0001379  81.8988 278.2160 15.08802139101097,6917.996,95.44,540.815,538.907,0.0
51134.0,STARLINK-3183,PAYLOAD,2023-11-06 23:57:04,15.08795715,0.0001356,53.2162,161.4874,81.7384,278.3761,-0.001227,-0.00019739,0.0,0 STARLINK-3183,1 51134U 22005AG  23310.99796520 -.00019739  00000-0 -12270-2 0  9994,2 51134  53.2162 161.4874 0001356  81.7384 278.3761 15.08795715100005,6918.016,95.44,540.819,538.943,0.0
51134.0,STARLINK-3183,PAYLOAD,2023-11-07 19:01:43,15.08806942,0.0001449,53.2157,157.9243,75.2061,284.9091,0.00016404,2.321e-05,0.0,0 STARLINK-3183,1 51134U 22005AG  23311.79286447  .00002321  00000-0  16404-3 0  9996,2 51134  53.2157 157.9243 0001449  75.2061 284.9091 15.08806942101232,6917.981,95.44,540.849,538.844,0.0
51134.0,STARLINK-3183,PAYLOAD,2023-11-08 20:27:53,15.08869226,0.0001419,53.216,153.1639,77.5067,282.6084,0.0015488,0.00024467,0.0,0 STARLINK-3183,1 51134U 22005AG  23312.85270265  .00024467  00000-0  15488-2 0  9990,2 51134  53.2160 153.1639 0001419  77.5067 282.6084 15.08869226101399,6917.791,95.436,540.638,538.674,0.0
51134.0,STARLINK-3183,PAYLOAD,2023-11-09 06:00:11,15.08864083,0.0001504,53.216,151.3795,75.4721,284.6438,0.00067969,0.00010553,0.0,0 STARLINK-3183,1 51134U 22005AG  23313.25013762  .00010553  00000-0  67969-3 0  9995,2 51134  53.2160 151.3795 0001504  75.4721 284.6438 15.08864083101459,6917.807,95.436,540.712,538.631,0.0
51134.0,STARLINK-3183,PAYLOAD,2023-11-09 13:57:07,15.08864068,0.0001602,53.2163,149.8953,86.2955,273.822,0.00046997,7.204e-05,0.0,0 STARLINK-3183,1 51134U 22005AG  23313.58133358  .00007204  00000-0  46997-3 0  9992,2 51134  53.2163 149.8953 0001602  86.2955 273.8220 15.08864068100392,6917.807,95.436,540.78,538.564,0.0
51134.0,STARLINK-3183,PAYLOAD,2023-11-09 20:18:39,15.08862977,0.0001508,53.2158,148.7042,83.4717,276.6447,0.00025697,3.807e-05,0.0,0 STARLINK-3183,1 51134U 22005AG  23313.84628953  .00003807  00000-0  25697-3 0  9990,2 51134  53.2158 148.7042 0001508  83.4717 276.6447 15.08862977101540,6917.81,95.436,540.718,538.632,0.0
51134.0,STARLINK-3183,PAYLOAD,2023-11-10 12:12:30,15.08855517,0.0001623,53.2161,145.7322,95.8089,264.3088,5.8182e-05,6.38e-06,0.0,0 STARLINK-3183,1 51134U 22005AG  23314.50868568  .00000638  00000-0  58182-4 0  9997,2 51134  53.2161 145.7322 0001623  95.8089 264.3088 15.08855517101647,6917.833,95.437,540.821,538.575,0.0
51134.0,STARLINK-3183,PAYLOAD,2023-11-10 20:09:26,15.08846868,0.0001524,53.2159,144.2437,87.0955,273.0211,-6.6745e-05,-1.35e-05,0.0,0 STARLINK-3183,1 51134U 22005AG  23314.83988886 -.00001350  00000-0 -66745-4 0  9997,2 51134  53.2159 144.2437 0001524  87.0955 273.0211 15.08846868101699,6917.859,95.437,540.779,538.67,0.0
51134.0,STARLINK-3183,PAYLOAD,2023-11-10 23:20:12,15.08847299,0.0001675,53.2154,143.6469,83.1468,276.9715,-7.8086e-05,-1.531e-05,0.0,0 STARLINK-3183,1 51134U 22005AG  23314.97236739 -.00001531  00000-0 -78086-4 0  9997,2 51134  53.2154 143.6469 0001675  83.1468 276.9715 15.08847299100605,6917.858,95.437,540.882,538.564,0.0
51134.0,STARLINK-3183,PAYLOAD,2023-11-11 20:00:14,15.08839288,0.0001303,53.2156,139.7806,86.6418,273.4723,-6.8173e-05,-1.373e-05,0.0,0 STARLINK-3183,1 51134U 22005AG  23315.83349636 -.00001373  00000-0 -68173-4 0  9994,2 51134  53.2156 139.7806 0001303  86.6418 273.4723 15.08839288101846,6917.883,95.438,540.649,538.846,0.0
51134.0,STARLINK-3183,PAYLOAD,2023-11-12 11:54:05,15.08834143,0.0001323,53.2159,136.8065,86.5062,273.6082,8.4496e-05,1.057e-05,0.0,0 STARLINK-3183,1 51134U 22005AG  23316.49589720  .00001057  00000-0  84496-4 0  9990,2 51134  53.2159 136.8065 0001323  86.5062 273.6082 15.08834143100833,6917.898,95.438,540.679,538.848,0.0
51134.0,STARLINK-3183,PAYLOAD,2023-11-12 19:51:00,15.08843478,0.0001228,53.2162,135.3194,87.3481,272.7652,8.1184e-05,1.005e-05,0.0,0 STARLINK-3183,1 51134U 22005AG  23316.82709154  .00001005  00000-0  81184-4 0  9996,2 51134  53.2162 135.3194 0001228  87.3481 272.7652 15.08843478100881,6917.87,95.437,540.584,538.885,0.0
51134.0,STARLINK-3183,PAYLOAD,2023-11-13 11:44:51,15.08845273,0.0001225,53.2164,132.3466,84.1914,275.9218,0.00015322,2.152e-05,0.0,0 STARLINK-3183,1 51134U 22005AG  23317.48948823  .00002152  00000-0  15322-3 0  9991,2 51134  53.2164 132.3466 0001225  84.1914 275.9218 15.08845273100984,6917.864,95.437,540.577,538.882,0.0
51134.0,STARLINK-3183,PAYLOAD,2023-11-14 17:57:11,15.088376,0.0001162,53.2174,126.6961,88.6746,271.4379,0.00027765,4.133e-05,0.0,0 STARLINK-3183,1 51134U 22005AG  23318.74804985  .00004133  00000-0  27765-3 0  9996,2 51134  53.2174 126.6961 0001162  88.6746 271.4379 15.08837600102282,6917.888,95.438,540.557,538.949,0.0
51134.0,STARLINK-3183,PAYLOAD,2023-11-14 21:07:57,15.08848434,0.000121,53.2176,126.1017,84.5043,275.6087,6.9589e-05,8.2e-06,0.0,0 STARLINK-3183,1 51134U 22005AG  23318.88052514  .00000820  00000-0  69589-4 0  9994,2 51134  53.2176 126.1017 0001210  84.5043 275.6087 15.08848434101198,6917.855,95.437,540.557,538.883,0.0
51134.0,STARLINK-3183,PAYLOAD,2023-11-15 11:26:26,15.08839465,0.000114,53.2176,123.424,93.9512,266.161,1.4813e-05,-5.2e-07,0.0,0 STARLINK-3183,1 51134U 22005AG  23319.47669117 -.00000052  00000-0  14813-4 0  9991,2 51134  53.2176 123.4240 0001140  93.9512 266.1610 15.08839465102397,6917.882,95.438,540.536,538.958,0.0
51134.0,STARLINK-3183,PAYLOAD,2023-11-15 17:47:58,15.08843607,0.0001365,53.2157,122.2335,91.3626,268.7522,8.7029e-06,-1.49e-06,0.0,0 STARLINK-3183,1 51134U 22005AG  23319.74164695 -.00000149  00000-0  87029-5 0  9999,2 51134  53.2157 122.2335 0001365  91.3626 268.7522 15.08843607101320,6917.869,95.437,540.679,538.79,0.0
